[
{"name": "Aleppo Bar", "categories": ["Fast food", "Kebaby"], "address": {"city": "Gdańsk", "postcode": "80-180", "street": "al. Grunwaldzka 44"}, "url": "https://katalog.trojmiasto.pl/gastronomia_i_jedzenie/fast_food/"},
{"name": "Antakya Kebab & Shisha Pub", "categories": ["Fast food", "Puby", "Kebaby"], "address": {"city": "Gdańsk", "postcode": "80-350", "street": "Chłopska 59"}, "url": "https://katalog.trojmiasto.pl/gastronomia_i_jedzenie/fast_food/"},
{"name": "Bar AKA", "categories": ["Fast food", "Kebaby"], "address": {"city": "Gdańsk", "postcode": "80-264", "street": "Klonowa 4"}, "url": "https://katalog.trojmiasto.pl/gastronomia_i_jedzenie/fast_food/"},
{"name": "Burger King", "categories": ["Fast food"], "address": {"city": "Gdańsk", "postcode": "80-806", "street": "Targ Sienny 7"}, "url": "https://katalog.trojmiasto.pl/gastronomia_i_jedzenie/fast_food/"},
{"name": "Burger King", "categories": ["Fast food"], "address": {"city": "Gdańsk", "postcode": "80-264", "street": "al. Grunwaldzka 141"}, "url": "https://katalog.trojmiasto.pl/gastronomia_i_jedzenie/fast_food/"},
{"name": "Burger King", "categories": ["Fast food"], "address": {"city": "Gdańsk", "postcode": "80-452", "street": "Jana Kilińskiego 4"}, "url": "https://katalog.trojmiasto.pl/gastronomia_i_jedzenie/fast_food/"},
{"name": "Burger King", "categories": ["Fast food"], "address": {"city": "Gdynia", "postcode": "81-451", "street": "al. Zwycięstwa 179"}, "url": "https://katalog.trojmiasto.pl/gastronomia_i_jedzenie/fast_food/"},
{"name": "Burger King", "categories": ["Fast food"], "address": {"city": "Gdańsk", "postcode": "80-175", "street": "płk. Jana Pałubickiego 10"}, "url": "https://katalog.trojmiasto.pl/gastronomia_i_jedzenie/fast_food/"},
{"name": "Burger King", "categories": ["Fast food"], "address": {"city": "Gdynia", "postcode": "81-304", "street": "Kazimierza Górskiego 2"}, "url": "https://katalog.trojmiasto.pl/gastronomia_i_jedzenie/fast_food/"},
{"name": "Champion Grill", "categories": ["Fast food", "Kebaby"], "address": {"city": "Gdańsk", "postcode": "80-354", "street": "Subisława 37"}, "url": "https://katalog.trojmiasto.pl/gastronomia_i_jedzenie/fast_food/"},
{"name": "Fornetti", "categories": ["Fast food", "Cukiernie i piekarnie"], "address": {"city": "Gdańsk", "postcode": "80-314", "street": "al. Grunwaldzka 309"}, "url": "https://katalog.trojmiasto.pl/gastronomia_i_jedzenie/fast_food/"},
{"name": "Fries Paradise", "categories": ["Fast food"], "address": {"city": "Gdynia", "postcode": "81-364", "street": "10 Lutego 28"}, "url": "https://katalog.trojmiasto.pl/gastronomia_i_jedzenie/fast_food/"},
{"name": "Gastro", "categories": ["Fast food", "Pizzerie", "Kebaby"], "address": {"city": "Gdańsk", "postcode": "80-288", "street": "Politechniczna 9"}, "url": "https://katalog.trojmiasto.pl/gastronomia_i_jedzenie/fast_food/"},
{"name": "Gdyńska Zapiekanka", "categories": ["Fast food"], "address": {"city": "Gdynia", "postcode": "81-388", "street": "Świętojańska 18"}, "url": "https://katalog.trojmiasto.pl/gastronomia_i_jedzenie/fast_food/"},
{"name": "Kali Orexi", "categories": ["Fast food"], "address": {"city": "Gdańsk", "postcode": "80-264", "street": "Klonowa"}, "url": "https://katalog.trojmiasto.pl/gastronomia_i_jedzenie/fast_food/"},
{"name": "Kebab King", "categories": ["Fast food"], "address": {"city": "Gdańsk", "postcode": "80-126", "street": "Stanisława Lema 4"}, "url": "https://katalog.trojmiasto.pl/gastronomia_i_jedzenie/fast_food/"},
{"name": "Kebabistan", "categories": ["Fast food"], "address": {"city": "Sopot", "postcode": "81-759", "street": "Bohaterów Monte Cassino 2A"}, "url": "https://katalog.trojmiasto.pl/gastronomia_i_jedzenie/fast_food/"},
{"name": "A Dong", "categories": ["Bary"], "address": {"city": "Gdańsk", "postcode": "80-398", "street": "Obrońców Wybrzeża 10A"}, "url": "https://katalog.trojmiasto.pl/gastronomia_i_jedzenie/bary/"},
{"name": "A-Dong", "categories": ["Bary", "Jedzenie na wynos"], "address": {"city": "Gdańsk", "postcode": "80-266", "street": "al. Grunwaldzka 209"}, "url": "https://katalog.trojmiasto.pl/gastronomia_i_jedzenie/bary/"},
{"name": "Am Thut Viet", "categories": ["Bary"], "address": {"city": "Sopot", "postcode": "81-838", "street": "al. Niepodległości 755"}, "url": "https://katalog.trojmiasto.pl/gastronomia_i_jedzenie/bary/"},
{"name": "Asia Hung", "categories": ["Bary"], "address": {"city": "Gdańsk", "postcode": "80-264", "street": "al. Grunwaldzka 141"}, "url": "https://katalog.trojmiasto.pl/gastronomia_i_jedzenie/bary/"},
{"name": "Asia Hung", "categories": ["Bary"], "address": {"city": "Gdańsk", "postcode": "80-288", "street": "Heleny Marusarzówny 2"}, "url": "https://katalog.trojmiasto.pl/gastronomia_i_jedzenie/bary/"},
{"name": "Asia Taste", "categories": ["Bary", "Jedzenie na wynos"], "address": {"city": "Gdańsk", "postcode": "80-369", "street": "al. Rzeczypospolitej 21D"}, "url": "https://katalog.trojmiasto.pl/gastronomia_i_jedzenie/bary/"},
{"name": "Bar 512", "categories": ["Bary"], "address": {"city": "Sopot", "postcode": "81-718", "street": "Powstańców Warszawy 10"}, "url": "https://katalog.trojmiasto.pl/gastronomia_i_jedzenie/bary/"},
{"name": "Bar Alicja", "categories": ["Bary", "Jedzenie na wynos"], "address": {"city": "Gdynia", "postcode": "81-651", "street": "Łużycka 6C"}, "url": "https://katalog.trojmiasto.pl/gastronomia_i_jedzenie/bary/"},
{"name": "Bar Asia Tuan Anh", "categories": ["Bary"], "address": {"city": "Gdańsk", "postcode": "80-808", "street": "Odrzańska 32"}, "url": "https://katalog.trojmiasto.pl/gastronomia_i_jedzenie/bary/"},
{"name": "KFC", "categories": ["Fast food", "Jedzenie na wynos"], "address": {"city": "Gdańsk", "postcode": "80-288", "street": "Heleny Marusarzówny 2"}, "url": "https://katalog.trojmiasto.pl/gastronomia_i_jedzenie/fast_food/index1.html"},
{"name": "KFC", "categories": ["Fast food"], "address": {"city": "Gdynia", "postcode": "81-366", "street": "10 Lutego 11"}, "url": "https://katalog.trojmiasto.pl/gastronomia_i_jedzenie/fast_food/index1.html"},
{"name": "KFC", "categories": ["Fast food", "Jedzenie na wynos"], "address": {"city": "Gdańsk", "postcode": "80-895", "street": "Podwale Grodzkie 2C"}, "url": "https://katalog.trojmiasto.pl/gastronomia_i_jedzenie/fast_food/index1.html"},
{"name": "KFC", "categories": ["Fast food", "Jedzenie na wynos"], "address": {"city": "Kowale", "postcode": "80-180", "street": "Glazurowa 2"}, "url": "https://katalog.trojmiasto.pl/gastronomia_i_jedzenie/fast_food/index1.html"},
{"name": "KFC", "categories": ["Fast food"], "address": {"city": "Gdańsk", "postcode": "80-398", "street": "Obrońców Wybrzeża 1"}, "url": "https://katalog.trojmiasto.pl/gastronomia_i_jedzenie/fast_food/index1.html"},
{"name": "KFC", "categories": ["Fast food", "Jedzenie na wynos"], "address": {"city": "Sopot", "postcode": "81-855", "street": "al. Niepodległości 635/637"}, "url": "https://katalog.trojmiasto.pl/gastronomia_i_jedzenie/fast_food/index1.html"},
{"name": "KFC", "categories": ["Fast food"], "address": {"city": "Gdynia", "postcode": "81-304", "street": "Kazimierza Górskiego 2"}, "url": "https://katalog.trojmiasto.pl/gastronomia_i_jedzenie/fast_food/index1.html"},
{"name": "KFC", "categories": ["Fast food"], "address": {"city": "Gdynia", "postcode": "81-005", "street": "Kcyńska 23"}, "url": "https://katalog.trojmiasto.pl/gastronomia_i_jedzenie/fast_food/index1.html"},
{"name": "KFC", "categories": ["Fast food"], "address": {"city": "Gdańsk", "postcode": "80-314", "street": "al. Grunwaldzka 258"}, "url": "https://katalog.trojmiasto.pl/gastronomia_i_jedzenie/fast_food/index1.html"},
{"name": "KFC", "categories": ["Fast food", "Jedzenie na wynos"], "address": {"city": "Gdańsk", "postcode": "80-717", "street": "Miałki Szlak 12"}, "url": "https://katalog.trojmiasto.pl/gastronomia_i_jedzenie/fast_food/index1.html"},
{"name": "KFC", "categories": ["Fast food", "Jedzenie na wynos"], "address": {"city": "Gdańsk", "postcode": "80-286", "street": "Juliusza Słowackiego 136"}, "url": "https://katalog.trojmiasto.pl/gastronomia_i_jedzenie/fast_food/index1.html"},
{"name": "KFC", "categories": ["Fast food", "Jedzenie na wynos"], "address": {"city": "Gdańsk", "postcode": "80-175", "street": "Gronostajowa 1"}, "url": "https://katalog.trojmiasto.pl/gastronomia_i_jedzenie/fast_food/index1.html"},
{"name": "KFC", "categories": ["Fast food"], "address": {"city": "Gdańsk", "postcode": "80-264", "street": "al. Grunwaldzka 141"}, "url": "https://katalog.trojmiasto.pl/gastronomia_i_jedzenie/fast_food/index1.html"},
{"name": "KFC", "categories": ["Fast food", "Jedzenie na wynos"], "address": {"city": "Gdańsk", "postcode": "80-462", "street": "al. Jana Pawła II 19"}, "url": "https://katalog.trojmiasto.pl/gastronomia_i_jedzenie/fast_food/index1.html"},
{"name": "KFC", "categories": ["Fast food"], "address": {"city": "Sopot", "postcode": "81-710", "street": "Dworcowa 7"}, "url": "https://katalog.trojmiasto.pl/gastronomia_i_jedzenie/fast_food/index1.html"},
{"name": "KFC", "categories": ["Fast food"], "address": {"city": "Gdańsk", "postcode": "80-462", "street": "al. Jana Pawła II 19"}, "url": "https://katalog.trojmiasto.pl/gastronomia_i_jedzenie/fast_food/index1.html"},
{"name": "KFC Auchan", "categories": ["Fast food"], "address": {"city": "Gdańsk", "postcode": "80-176", "street": "Szczęśliwa 3"}, "url": "https://katalog.trojmiasto.pl/gastronomia_i_jedzenie/fast_food/index1.html"},
{"name": "KFC Gdańsk Galeria Forum", "categories": ["Fast food"], "address": {"city": "Gdańsk", "postcode": "80-803", "street": "Targ Sienny 7"}, "url": "https://katalog.trojmiasto.pl/gastronomia_i_jedzenie/fast_food/index1.html"},
{"name": "McDonald's", "categories": ["Fast food"], "address": {"city": "Gdynia", "postcode": "81-354", "street": "pl. Konstytucji 1"}, "url": "https://katalog.trojmiasto.pl/gastronomia_i_jedzenie/fast_food/index1.html"},
{"name": "McDonald's", "categories": ["Fast food"], "address": {"city": "Sopot", "postcode": "81-706", "street": "Bohaterów Monte Cassino 21"}, "url": "https://katalog.trojmiasto.pl/gastronomia_i_jedzenie/fast_food/index1.html"},
{"name": "Bar Awista", "categories": ["Bary"], "address": {"city": "Sopot", "postcode": "81-874", "street": "Mikołaja Reja 13/15"}, "url": "https://katalog.trojmiasto.pl/gastronomia_i_jedzenie/bary/index1.html"},
{"name": "Bar AZJA", "categories": ["Bary"], "address": {"city": "Gdynia", "postcode": "81-387", "street": "Świętojańska 97"}, "url": "https://katalog.trojmiasto.pl/gastronomia_i_jedzenie/bary/index1.html"},
{"name": "Bar Bistro", "categories": ["Bary"], "address": {"city": "Gdańsk", "postcode": "80-817", "street": "Obrońców Westerplatte 39/C"}, "url": "https://katalog.trojmiasto.pl/gastronomia_i_jedzenie/bary/index1.html"},
{"name": "Bar Caira", "categories": ["Bary", "Catering"], "address": {"city": "Gdańsk", "postcode": "80-611", "street": "Zimna 1"}, "url": "https://katalog.trojmiasto.pl/gastronomia_i_jedzenie/bary/index1.html"},
{"name": "Bar Chiński Wiatr", "categories": ["Bary"], "address": {"city": "Gdańsk", "postcode": "80-850", "street": "Rajska 4E"}, "url": "https://katalog.trojmiasto.pl/gastronomia_i_jedzenie/bary/index1.html"},
{"name": "Bar Elita", "categories": ["Bary"], "address": {"city": "Sopot", "postcode": "81-805", "street": "Podjazd 3"}, "url": "https://katalog.trojmiasto.pl/gastronomia_i_jedzenie/bary/index1.html"},
{"name": "Bar GO-IBO", "categories": ["Bary"], "address": {"city": "Gdańsk", "postcode": "80-277", "street": "Do Studzienki 16A"}, "url": "https://katalog.trojmiasto.pl/gastronomia_i_jedzenie/bary/index1.html"},
{"name": "Bar Kambuz", "categories": ["Bary"], "address": {"city": "Gdańsk", "postcode": "80-277", "street": "Do Studzienki 16A"}, "url": "https://katalog.trojmiasto.pl/gastronomia_i_jedzenie/bary/index1.html"},
{"name": "Bar Kamionka", "categories": ["Bary"], "address": {"city": "Gdańsk", "postcode": "80-277", "street": "Do Studzienki 16A"}, "url": "https://katalog.trojmiasto.pl/gastronomia_i_jedzenie/bary/index1.html"},
{"name": "Bar Led", "categories": ["Bary"], "address": {"city": "Gdańsk", "postcode": "80-277", "street": "Do Studzienki 16A"}, "url": "https://katalog.trojmiasto.pl/gastronomia_i_jedzenie/bary/index1.html"},
{"name": "Bar Maciuś", "categories": ["Bary"], "address": {"city": "Gdańsk", "postcode": "80-244", "street": "al. Grunwaldzka 77"}, "url": "https://katalog.trojmiasto.pl/gastronomia_i_jedzenie/bary/index1.html"},
{"name": "Bar Mewa", "categories": ["Bary"], "address": {"city": "Gdynia", "postcode": "81-108", "street": "Osada Rybacka 29"}, "url": "https://katalog.trojmiasto.pl/gastronomia_i_jedzenie/bary/index1.html"},
{"name": "Bar Nadmorski", "categories": ["Bary"], "address": {"city": "Gdańsk", "postcode": "80-342", "street": "Jelitkowska 4"}, "url": "https://katalog.trojmiasto.pl/gastronomia_i_jedzenie/bary/index1.html"},
{"name": "Bar pod Rybą", "categories": ["Bary", "Jedzenie na wynos"], "address": {"city": "Gdańsk", "postcode": "80-831", "street": "Piwna 61/63"}, "url": "https://katalog.trojmiasto.pl/gastronomia_i_jedzenie/bary/index1.html"},
{"name": "Bar Przystań", "categories": ["Bary", "Smażalnia ryb"], "address": {"city": "Sopot", "postcode": "81-769", "street": "al. Wojska Polskiego 11"}, "url": "https://katalog.trojmiasto.pl/gastronomia_i_jedzenie/bary/index1.html"},
{"name": "Bar Śledzik", "categories": ["Bary", "Jedzenie na wynos"], "address": {"city": "Gdańsk", "postcode": "80-502", "street": "al. gen. Józefa Hallera 269"}, "url": "https://katalog.trojmiasto.pl/gastronomia_i_jedzenie/bary/index1.html"},
{"name": "Bar Sternik", "categories": ["Bary"], "address": {"city": "Gdańsk", "postcode": "81-345", "street": "al. Jana Pawła II 4"}, "url": "https://katalog.trojmiasto.pl/gastronomia_i_jedzenie/bary/index1.html"},
{"name": "Bar U Chiefa", "categories": ["Bary"], "address": {"city": "Gdańsk", "postcode": "80-502", "street": "al. gen. Józefa Hallera 267"}, "url": "https://katalog.trojmiasto.pl/gastronomia_i_jedzenie/bary/index1.html"},
{"name": "McDonald's", "categories": ["Fast food"], "address": {"city": "Gdańsk", "postcode": "80-298", "street": "Juliusza Słowackiego 200"}, "url": "https://katalog.trojmiasto.pl/gastronomia_i_jedzenie/fast_food/index2.html"},
{"name": "McDonald's", "categories": ["Fast food"], "address": {"city": "Gdynia", "postcode": "81-304", "street": "Kazimierza Górskiego 2"}, "url": "https://katalog.trojmiasto.pl/gastronomia_i_jedzenie/fast_food/index2.html"},
{"name": "McDonald's", "categories": ["Fast food"], "address": {"city": "Gdańsk", "postcode": "80-299", "street": "Odyseusza 16"}, "url": "https://katalog.trojmiasto.pl/gastronomia_i_jedzenie/fast_food/index2.html"},
{"name": "McDonald's", "categories": ["Fast food"], "address": {"city": "Gdańsk", "postcode": "80-299", "street": "Odyseusza 16"}, "url": "https://katalog.trojmiasto.pl/gastronomia_i_jedzenie/fast_food/index2.html"},
{"name": "McDonald's", "categories": ["Fast food"], "address": {"city": "Gdańsk", "postcode": "80-174", "street": "Przywidzka 6C"}, "url": "https://katalog.trojmiasto.pl/gastronomia_i_jedzenie/fast_food/index2.html"},
{"name": "McDonald's", "categories": ["Fast food"], "address": {"city": "Gdańsk", "postcode": "80-264", "street": "al. Grunwaldzka 141"}, "url": "https://katalog.trojmiasto.pl/gastronomia_i_jedzenie/fast_food/index2.html"},
{"name": "McDonald's", "categories": ["Fast food"], "address": {"city": "Gdynia", "postcode": "81-225", "street": "Morska 58"}, "url": "https://katalog.trojmiasto.pl/gastronomia_i_jedzenie/fast_food/index2.html"},
{"name": "McDonald's", "categories": ["Fast food"], "address": {"city": "Gdynia", "postcode": "81-525", "street": "al. Zwycięstwa 256"}, "url": "https://katalog.trojmiasto.pl/gastronomia_i_jedzenie/fast_food/index2.html"},
{"name": "McDonald's", "categories": ["Fast food"], "address": {"city": "Gdańsk", "postcode": "80-895", "street": "Podwale Grodzkie 1"}, "url": "https://katalog.trojmiasto.pl/gastronomia_i_jedzenie/fast_food/index2.html"},
{"name": "McDonald's", "categories": ["Fast food"], "address": {"city": "Gdańsk", "postcode": "81-399", "street": "Chłopska 18"}, "url": "https://katalog.trojmiasto.pl/gastronomia_i_jedzenie/fast_food/index2.html"},
